*******************************************************************************
Ephemeris / WWW_USER Fri Mar  7 11:28:05 2025 Pasadena, USA      / Horizons    
*******************************************************************************
Target body name: (2018 UG3)                      {source: JPL#15}
Center body name: Earth (399)                     {source: DE441}
Center-site name: Mauna Kea
*******************************************************************************
Start time      : A.D. 2018-Sep-04 04:44:00.0000 UT      
Stop  time      : A.D. 2018-Sep-04 15:57:00.0000 UT      
Step-size       : 1 minutes
*******************************************************************************
Target pole/equ : undefined
Target radii    : undefined                                                    
Center geodetic : 204.5278, 19.8260847, 4.21024   {E-lon(deg),Lat(deg),Alt(km)}
Center cylindric: 204.5278, 6006.35451, 2151.0229 {E-lon(deg),Dxy(km),Dz(km)}
Center pole/equ : ITRF93                          {East-longitude positive}
Center radii    : 6378.137, 6378.137, 6356.752 km {Equator_a, b, pole_c}       
Target primary  : Sun
Vis. interferer : MOON (R_eq= 1737.400) km        {source: DE441}
Rel. light bend : Sun                             {source: DE441}
Rel. lght bnd GM: 1.3271E+11 km^3/s^2                                          
Small-body perts: Yes                             {source: SB441-N16}
Atmos refraction: NO (AIRLESS)
RA format       : HMS
Time format     : CAL 
Calendar mode   : Mixed Julian/Gregorian
RTS-only print  : NO       
EOP file        : eop.250306.p250602                                           
EOP coverage    : DATA-BASED 1962-JAN-20 TO 2025-MAR-06. PREDICTS-> 2025-JUN-01
Units conversion: 1 au= 149597870.700 km, c= 299792.458 km/s, 1 day= 86400.0 s 
Table cut-offs 1: Elevation (-90.0deg=NO ),Airmass (>38.000=NO), Daylight (YES)
Table cut-offs 2: Solar elongation (  0.0,180.0=NO ),Local Hour Angle( 0.0=NO )
Table cut-offs 3: RA/DEC angular rate (     0.0=NO )                           
*******************************************************************************
Initial IAU76/J2000 heliocentric ecliptic osculating elements (au, days, deg.):
  EPOCH=  2458429.5 ! 2018-Nov-07.00 (TDB)         Residual RMS= .46194        
   EC= .4227384440318329   QR= .9585039390071354   TP= 2458393.2526467689      
   OM= 47.27406359171053   W=  314.2704472892426   IN= 6.159551265235018       
  Equivalent ICRF heliocentric cartesian coordinates (au, au/d):
   X= 7.430529944075828E-01  Y= 6.714692173902916E-01  Z= 2.851295671149762E-01
  VX=-1.040372162305418E-02 VY= 1.447630012002514E-02 VZ= 8.505235531163944E-03
Asteroid physical parameters (km, seconds, rotational period in hours):        
   GM= n.a.                RAD= n.a.               ROTPER= n.a.                
   H= 24.5                 G= .150                 B-V= n.a.                   
                           ALBEDO= n.a.            STYP= n.a.                  
*******************************************************************************
 Date__(UT)__HR:MN     R.A._________(ICRF)_________DEC
******************************************************
$$SOE
 2018-Sep-04 08:50     15 38 24.882160 -44 54 33.48156
 2018-Sep-04 08:51     15 38 24.925657 -44 54 33.90809
 2018-Sep-04 08:52     15 38 24.969214 -44 54 34.33460
 2018-Sep-04 08:53     15 38 25.012831 -44 54 34.76108
 2018-Sep-04 08:54     15 38 25.056508 -44 54 35.18754
 2018-Sep-04 08:55     15 38 25.100244 -44 54 35.61398
 2018-Sep-04 08:56     15 38 25.144040 -44 54 36.04041
 2018-Sep-04 08:57     15 38 25.187897 -44 54 36.46682
 2018-Sep-04 08:58     15 38 25.231813 -44 54 36.89321
 2018-Sep-04 08:59     15 38 25.275789 -44 54 37.31960
 2018-Sep-04 09:00     15 38 25.319825 -44 54 37.74597
 2018-Sep-04 09:01     15 38 25.363921 -44 54 38.17233
 2018-Sep-04 09:02     15 38 25.408077 -44 54 38.59869
 2018-Sep-04 09:03     15 38 25.452293 -44 54 39.02505
 2018-Sep-04 09:04     15 38 25.496569 -44 54 39.45140
 2018-Sep-04 09:05     15 38 25.540904 -44 54 39.87775
 2018-Sep-04 09:06     15 38 25.585300 -44 54 40.30411
 2018-Sep-04 09:07     15 38 25.629756 -44 54 40.73047
 2018-Sep-04 09:08     15 38 25.674272 -44 54 41.15683
 2018-Sep-04 09:09     15 38 25.718848 -44 54 41.58320
 2018-Sep-04 09:10     15 38 25.763484 -44 54 42.00958
 2018-Sep-04 09:11     15 38 25.808179 -44 54 42.43597
 2018-Sep-04 09:12     15 38 25.852935 -44 54 42.86238
 2018-Sep-04 09:13     15 38 25.897751 -44 54 43.28880
 2018-Sep-04 09:14     15 38 25.942627 -44 54 43.71524
 2018-Sep-04 09:15     15 38 25.987563 -44 54 44.14169
 2018-Sep-04 09:16     15 38 26.032558 -44 54 44.56817
 2018-Sep-04 09:17     15 38 26.077614 -44 54 44.99467
 2018-Sep-04 09:18     15 38 26.122730 -44 54 45.42120
 2018-Sep-04 09:19     15 38 26.167905 -44 54 45.84775
 2018-Sep-04 09:20     15 38 26.213141 -44 54 46.27433
 2018-Sep-04 09:21     15 38 26.258436 -44 54 46.70095
 2018-Sep-04 09:22     15 38 26.303792 -44 54 47.12759
 2018-Sep-04 09:23     15 38 26.349207 -44 54 47.55427
 2018-Sep-04 09:24     15 38 26.394682 -44 54 47.98099
 2018-Sep-04 09:25     15 38 26.440218 -44 54 48.40774
 2018-Sep-04 09:26     15 38 26.485812 -44 54 48.83454
 2018-Sep-04 09:27     15 38 26.531467 -44 54 49.26137
 2018-Sep-04 09:28     15 38 26.577182 -44 54 49.68825
 2018-Sep-04 09:29     15 38 26.622956 -44 54 50.11518
 2018-Sep-04 09:30     15 38 26.668790 -44 54 50.54216
 2018-Sep-04 09:31     15 38 26.714684 -44 54 50.96918
 2018-Sep-04 09:32     15 38 26.760638 -44 54 51.39626
 2018-Sep-04 09:33     15 38 26.806651 -44 54 51.82339
 2018-Sep-04 09:34     15 38 26.852724 -44 54 52.25058
 2018-Sep-04 09:35     15 38 26.898857 -44 54 52.67783
 2018-Sep-04 09:36     15 38 26.945049 -44 54 53.10513
 2018-Sep-04 09:37     15 38 26.991301 -44 54 53.53250
 2018-Sep-04 09:38     15 38 27.037613 -44 54 53.95993
 2018-Sep-04 09:39     15 38 27.083984 -44 54 54.38742
 2018-Sep-04 09:40     15 38 27.130414 -44 54 54.81499
 2018-Sep-04 09:41     15 38 27.176904 -44 54 55.24262
 2018-Sep-04 09:42     15 38 27.223453 -44 54 55.67032
 2018-Sep-04 09:43     15 38 27.270062 -44 54 56.09810
 2018-Sep-04 09:44     15 38 27.316730 -44 54 56.52595
 2018-Sep-04 09:45     15 38 27.363458 -44 54 56.95388
 2018-Sep-04 09:46     15 38 27.410244 -44 54 57.38189
 2018-Sep-04 09:47     15 38 27.457090 -44 54 57.80997
 2018-Sep-04 09:48     15 38 27.503996 -44 54 58.23815
 2018-Sep-04 09:49     15 38 27.550960 -44 54 58.66640
 2018-Sep-04 09:50     15 38 27.597983 -44 54 59.09474
 2018-Sep-04 09:51     15 38 27.645066 -44 54 59.52317
 2018-Sep-04 09:52     15 38 27.692207 -44 54 59.95169
 2018-Sep-04 09:53     15 38 27.739407 -44 55 00.38031
 2018-Sep-04 09:54     15 38 27.786667 -44 55 00.80901
 2018-Sep-04 09:55     15 38 27.833985 -44 55 01.23782
 2018-Sep-04 09:56     15 38 27.881362 -44 55 01.66672
 2018-Sep-04 09:57     15 38 27.928798 -44 55 02.09572
 2018-Sep-04 09:58     15 38 27.976292 -44 55 02.52482
 2018-Sep-04 09:59     15 38 28.023845 -44 55 02.95403
 2018-Sep-04 10:00     15 38 28.071457 -44 55 03.38334
 2018-Sep-04 10:01     15 38 28.119127 -44 55 03.81276
 2018-Sep-04 10:02     15 38 28.166856 -44 55 04.24229
 2018-Sep-04 10:03     15 38 28.214643 -44 55 04.67193
 2018-Sep-04 10:04     15 38 28.262489 -44 55 05.10168
 2018-Sep-04 10:05     15 38 28.310393 -44 55 05.53155
 2018-Sep-04 10:06     15 38 28.358355 -44 55 05.96153
 2018-Sep-04 10:07     15 38 28.406375 -44 55 06.39163
 2018-Sep-04 10:08     15 38 28.454454 -44 55 06.82186
 2018-Sep-04 10:09     15 38 28.502590 -44 55 07.25220
 2018-Sep-04 10:10     15 38 28.550785 -44 55 07.68267
 2018-Sep-04 10:11     15 38 28.599037 -44 55 08.11327
 2018-Sep-04 10:12     15 38 28.647347 -44 55 08.54399
 2018-Sep-04 10:13     15 38 28.695716 -44 55 08.97485
 2018-Sep-04 10:14     15 38 28.744141 -44 55 09.40583
 2018-Sep-04 10:15     15 38 28.792625 -44 55 09.83695
 2018-Sep-04 10:16     15 38 28.841166 -44 55 10.26821
 2018-Sep-04 10:17     15 38 28.889764 -44 55 10.69960
 2018-Sep-04 10:18     15 38 28.938420 -44 55 11.13113
 2018-Sep-04 10:19     15 38 28.987133 -44 55 11.56280
 2018-Sep-04 10:20     15 38 29.035904 -44 55 11.99462
 2018-Sep-04 10:21     15 38 29.084732 -44 55 12.42658
 2018-Sep-04 10:22     15 38 29.133616 -44 55 12.85869
 2018-Sep-04 10:23     15 38 29.182558 -44 55 13.29094
 2018-Sep-04 10:24     15 38 29.231557 -44 55 13.72335
 2018-Sep-04 10:25     15 38 29.280613 -44 55 14.15590
 2018-Sep-04 10:26     15 38 29.329725 -44 55 14.58862
 2018-Sep-04 10:27     15 38 29.378894 -44 55 15.02148
 2018-Sep-04 10:28     15 38 29.428120 -44 55 15.45451
 2018-Sep-04 10:29     15 38 29.477402 -44 55 15.88769
 2018-Sep-04 10:30     15 38 29.526741 -44 55 16.32104
 2018-Sep-04 10:31     15 38 29.576136 -44 55 16.75454
 2018-Sep-04 10:32     15 38 29.625587 -44 55 17.18822
 2018-Sep-04 10:33     15 38 29.675095 -44 55 17.62206
 2018-Sep-04 10:34     15 38 29.724659 -44 55 18.05607
 2018-Sep-04 10:35     15 38 29.774278 -44 55 18.49024
 2018-Sep-04 10:36     15 38 29.823954 -44 55 18.92460
 2018-Sep-04 10:37     15 38 29.873685 -44 55 19.35912
 2018-Sep-04 10:38     15 38 29.923472 -44 55 19.79382
 2018-Sep-04 10:39     15 38 29.973314 -44 55 20.22870
 2018-Sep-04 10:40     15 38 30.023212 -44 55 20.66375
 2018-Sep-04 10:41     15 38 30.073166 -44 55 21.09899
 2018-Sep-04 10:42     15 38 30.123175 -44 55 21.53441
 2018-Sep-04 10:43     15 38 30.173239 -44 55 21.97002
 2018-Sep-04 10:44     15 38 30.223358 -44 55 22.40581
 2018-Sep-04 10:45  m  15 38 30.273532 -44 55 22.84179
 2018-Sep-04 10:46  m  15 38 30.323761 -44 55 23.27796
 2018-Sep-04 10:47  m  15 38 30.374045 -44 55 23.71432
 2018-Sep-04 10:48  m  15 38 30.424383 -44 55 24.15088
 2018-Sep-04 10:49  m  15 38 30.474776 -44 55 24.58763
 2018-Sep-04 10:50  m  15 38 30.525224 -44 55 25.02458
 2018-Sep-04 10:51  m  15 38 30.575725 -44 55 25.46172
 2018-Sep-04 10:52  m  15 38 30.626282 -44 55 25.89907
